OBJECT_NAME,OBJECT_ID,EPOCH,MEAN_MOTION,ECCENTRICITY,INCLINATION,RA_OF_ASC_NODE,ARG_OF_PERICENTER,MEAN_ANOMALY,EPHEMERIS_TYPE,CLASSIFICATION_TYPE,NORAD_CAT_ID,ELEMENT_SET_NO,REV_AT_EPOCH,BSTAR,MEAN_MOTION_DOT,MEAN_MOTION_DDOT
BEIDOU-2 IGSO-4,2011-038A,2026-06-05T00:18:51.599808,1.00287701,.01590014,54.5979,165.7814,231.3624,313.8818,0,U,37763,999,5452,0,.56E-6,0
ASTRA 1N,2011-041A,2026-06-07T18:39:10.404864,1.00271977,.0006293,0.0791,34.3528,57.8490,102.9798,0,U,37775,999,4443,0,.135E-5,0
BSAT-3C (JCSAT-110R),2011-041B,2026-06-07T19:05:26.587104,1.00272155,.0000453,0.0200,319.6730,200.1400,132.7047,0,U,37776,999,5037,0,-.336E-5,0
PAKSAT-1R,2011-042A,2026-06-07T18:44:30.292224,1.00274600,.00033,0.6635,84.6968,345.0458,145.5596,0,U,37779,999,5438,0,.169E-5,0
SES-2,2011-049A,2026-06-07T14:43:33.744000,1.00271917,.0002937,0.0426,119.9559,314.6524,315.3043,0,U,37809,999,5386,0,-.181E-5,0
ARABSAT-5C,2011-049B,2026-06-07T13:31:19.742880,1.00273558,.0003293,0.0594,27.9926,65.9651,24.8388,0,U,37810,999,5394,0,.138E-5,0
EUTELSAT 7 WEST A,2011-051A,2026-06-07T18:31:33.635712,1.00271322,.0004248,0.0606,351.9093,97.4778,77.3598,0,U,37816,999,5378,0,-.45E-6,0
QUETZSAT 1,2011-054A,2026-06-07T18:11:31.155936,1.00272223,.0002835,0.0453,69.7389,8.6513,13.6588,0,U,37826,999,4978,0,-.227E-5,0
INTELSAT 18 (IS-18),2011-056A,2026-06-07T15:59:36.381984,1.00272184,.0002156,0.0191,319.0517,131.6868,225.2343,0,U,37834,999,5371,0,.68E-6,0
EUTELSAT 16A,2011-057A,2026-06-07T18:38:10.502016,1.00270602,.0005858,0.0421,352.2243,87.2522,112.2244,0,U,37836,999,724,0,.119E-5,0
VIASAT-1,2011-059A,2026-06-07T16:18:12.099744,1.00271945,.0002429,0.0164,308.0335,130.1490,307.3550,0,U,37843,999,4722,0,-.9E-7,0
ASIASAT 7,2011-069A,2026-06-07T20:46:22.123776,1.00266732,.0001376,0.0163,347.2005,84.3366,241.8336,0,U,37933,999,4476,0,0,0
BEIDOU-2 IGSO-5,2011-073A,2026-06-07T19:12:21.611232,1.00275188,.0113614,47.6966,271.6638,221.6822,142.6954,0,U,37948,999,5304,0,-.16E-5,0
LUCH-5A,2011-074B,2026-06-06T14:15:51.287040,1.00269862,.00024028,8.7265,73.9638,12.4500,189.5697,0,U,37951,999,5294,0,-.37E-6,0
NIGCOMSAT 1R,2011-077A,2026-06-07T18:45:45.173376,1.00271568,.000258,0.0234,199.5031,154.1588,226.4429,0,U,38014,999,5286,0,.16E-5,0
WGS F4 (USA 233),2012-003A,2026-06-07T17:16:13.370880,1.00267905,.0000425,0.0168,333.7142,301.0494,328.8374,0,U,38070,999,4405,0,0,0
SES-4,2012-007A,2026-06-07T08:11:24.157248,1.00270468,.0002493,0.0248,27.8011,58.4945,270.3024,0,U,38087,999,5212,0,-.154E-5,0
BEIDOU-2 G5,2012-008A,2026-06-07T18:50:22.229664,1.00270094,.0009436,3.5497,69.7538,276.1352,251.5748,0,U,38091,999,5227,0,.72E-6,0
MUOS-1,2012-009A,2026-06-07T16:22:26.692896,1.00270705,.005888,5.4576,47.1644,1.0813,353.4822,0,U,38093,999,5234,0,-.114E-5,0
INTELSAT 22 (IS-22),2012-011A,2026-06-07T18:54:14.357952,1.00273334,.0001609,0.0215,62.3604,4.5520,184.9332,0,U,38098,999,709,0,-.44E-6,0
APSTAR-7,2012-013A,2026-06-07T20:38:07.913184,1.00271280,.0003022,0.0365,86.5695,359.9515,195.7649,0,U,38107,999,5171,0,-.86E-6,0
YAHSAT 1B,2012-016A,2026-06-07T18:47:15.029376,1.00268219,.0002734,0.0861,91.0179,10.5163,124.0719,0,U,38245,999,4551,0,.142E-5,0
AEHF-2 (USA 235),2012-019A,2026-06-07T09:55:36.927840,1.00270469,.0002321,6.6291,57.5610,8.9159,321.7288,0,U,38254,999,688,0,-.122E-5,0
JCSAT-13,2012-023A,2026-06-07T17:26:20.488128,1.00271533,.0002843,0.0405,82.9852,10.1966,188.5409,0,U,38331,999,5144,0,-.341E-5,0
VINASAT-2,2012-023B,2026-06-07T19:11:12.732288,1.00272219,.0002398,0.0172,13.9256,74.9026,227.0301,0,U,38332,999,4656,0,-.314E-5,0
NIMIQ 6,2012-026A,2026-06-07T12:59:38.044320,1.00271884,.0002816,0.0096,325.5194,109.6533,284.5846,0,U,38342,999,5031,0,-.159E-5,0
ZHONGXING-2A,2012-028A,2026-06-07T20:44:22.316352,1.00271014,.0003753,1.4294,84.0030,33.6064,187.9820,0,U,38352,999,5120,0,-.277E-5,0
INTELSAT 19 (IS-19),2012-030A,2026-06-07T14:13:00.863904,1.00271459,.0003093,0.0106,32.4422,51.8353,190.9735,0,U,38356,999,5035,0,-.42E-6,0
ECHOSTAR 17,2012-035A,2026-06-07T14:37:41.807424,1.00269025,.0001807,0.0178,344.3202,92.1715,291.8458,0,U,38551,999,5096,0,0,0
METEOSAT-10 (MSG-3),2012-035B,2026-06-07T08:17:38.557824,1.00275762,.0001677,4.6475,61.0621,336.2701,343.0302,0,U,38552,999,5075,0,.9E-7,0
SES-5,2012-036A,2026-06-07T06:36:22.508064,1.00273741,.0002155,0.0512,308.1088,128.3799,283.2716,0,U,38652,999,4435,0,.48E-6,0
INTELSAT 20 (IS-20),2012-043A,2026-06-07T17:10:28.921728,1.00272191,.0001779,0.0097,87.3258,87.5620,47.3462,0,U,38740,999,5065,0,-.1E-6,0
