BEIDOU-2 IGSO-4         
1 37763U 11038A   26156.01309722  .00000056  00000+0  00000+0 0  9992
2 37763  54.5979 165.7814 0159001 231.3624 313.8818  1.00287701 54520
ASTRA 1N                
1 37775U 11041A   26158.77720376  .00000135  00000+0  00000+0 0  9994
2 37775   0.0791  34.3528 0006293  57.8490 102.9798  1.00271977 44431
BSAT-3C (JCSAT-110R)    
1 37776U 11041B   26158.79544661 -.00000336  00000+0  00000+0 0  9992
2 37776   0.0200 319.6730 0000453 200.1400 132.7047  1.00272155 50374
PAKSAT-1R               
1 37779U 11042A   26158.78090616  .00000169  00000+0  00000+0 0  9994
2 37779   0.6635  84.6968 0003300 345.0458 145.5596  1.00274600 54386
SES-2                   
1 37809U 11049A   26158.61358500 -.00000181  00000+0  00000+0 0  9991
2 37809   0.0426 119.9559 0002937 314.6524 315.3043  1.00271917 53865
ARABSAT-5C              
1 37810U 11049B   26158.56342295  .00000138  00000+0  00000+0 0  9992
2 37810   0.0594  27.9926 0003293  65.9651  24.8388  1.00273558 53948
EUTELSAT 7 WEST A       
1 37816U 11051A   26158.77191708 -.00000045  00000+0  00000+0 0  9993
2 37816   0.0606 351.9093 0004248  97.4778  77.3598  1.00271322 53789
QUETZSAT 1              
1 37826U 11054A   26158.75799949 -.00000227  00000+0  00000+0 0  9998
2 37826   0.0453  69.7389 0002835   8.6513  13.6588  1.00272223 49781
INTELSAT 18 (IS-18)     
1 37834U 11056A   26158.66639331  .00000068  00000+0  00000+0 0  9999
2 37834   0.0191 319.0517 0002156 131.6868 225.2343  1.00272184 53713
EUTELSAT 16A            
1 37836U 11057A   26158.77651044  .00000119  00000+0  00000+0 0  9996
2 37836   0.0421 352.2243 0005858  87.2522 112.2244  1.00270602  7246
VIASAT-1                
1 37843U 11059A   26158.67930671 -.00000009  00000+0  00000+0 0  9990
2 37843   0.0164 308.0335 0002429 130.1490 307.3550  1.00271945 47222
ASIASAT 7               
1 37933U 11069A   26158.86553384  .00000000  00000+0  00000+0 0  9994
2 37933   0.0163 347.2005 0001376  84.3366 241.8336  1.00266732 44760
BEIDOU-2 IGSO-5         
1 37948U 11073A   26158.80025013 -.00000160  00000+0  00000+0 0  9990
2 37948  47.6966 271.6638 0113614 221.6822 142.6954  1.00275188 53048
LUCH-5A                 
1 37951U 11074B   26157.59434360 -.00000037  00000+0  00000+0 0  9992
2 37951   8.7265  73.9638 0002402  12.4500 189.5697  1.00269862 52940
NIGCOMSAT 1R            
1 38014U 11077A   26158.78177284  .00000160  00000+0  00000+0 0  9993
2 38014   0.0234 199.5031 0002580 154.1588 226.4429  1.00271568 52862
WGS F4 (USA 233)        
1 38070U 12003A   26158.71959920  .00000000  00000+0  00000+0 0  9996
2 38070   0.0168 333.7142 0000425 301.0494 328.8374  1.00267905 44058
SES-4                   
1 38087U 12007A   26158.34125182 -.00000154  00000+0  00000+0 0  9993
2 38087   0.0248  27.8011 0002493  58.4945 270.3024  1.00270468 52120
BEIDOU-2 G5             
1 38091U 12008A   26158.78497951  .00000072  00000+0  00000+0 0  9991
2 38091   3.5497  69.7538 0009436 276.1352 251.5748  1.00270094 52278
MUOS-1                  
1 38093U 12009A   26158.68225339 -.00000114  00000+0  00000+0 0  9990
2 38093   5.4576  47.1644 0058880   1.0813 353.4822  1.00270705 52343
INTELSAT 22 (IS-22)     
1 38098U 12011A   26158.78766618 -.00000044  00000+0  00000+0 0  9991
2 38098   0.0215  62.3604 0001609   4.5520 184.9332  1.00273334  7090
APSTAR-7                
1 38107U 12013A   26158.85981381 -.00000086  00000+0  00000+0 0  9994
2 38107   0.0365  86.5695 0003022 359.9515 195.7649  1.00271280 51714
YAHSAT 1B               
1 38245U 12016A   26158.78281284  .00000142  00000+0  00000+0 0  9999
2 38245   0.0861  91.0179 0002734  10.5163 124.0719  1.00268219 45516
AEHF-2 (USA 235)        
1 38254U 12019A   26158.41362185 -.00000122  00000+0  00000+0 0  9991
2 38254   6.6291  57.5610 0002321   8.9159 321.7288  1.00270469  6884
JCSAT-13                
1 38331U 12023A   26158.72662602 -.00000341  00000+0  00000+0 0  9996
2 38331   0.0405  82.9852 0002843  10.1966 188.5409  1.00271533 51444
VINASAT-2               
1 38332U 12023B   26158.79945292 -.00000314  00000+0  00000+0 0  9993
2 38332   0.0172  13.9256 0002398  74.9026 227.0301  1.00272219 46567
NIMIQ 6                 
1 38342U 12026A   26158.54141255 -.00000159  00000+0  00000+0 0  9994
2 38342   0.0096 325.5194 0002816 109.6533 284.5846  1.00271884 50317
ZHONGXING-2A            
1 38352U 12028A   26158.86414718 -.00000277  00000+0  00000+0 0  9990
2 38352   1.4294  84.0030 0003753  33.6064 187.9820  1.00271014 51207
INTELSAT 19 (IS-19)     
1 38356U 12030A   26158.59237111 -.00000042  00000+0  00000+0 0  9997
2 38356   0.0106  32.4422 0003093  51.8353 190.9735  1.00271459 50357
ECHOSTAR 17             
1 38551U 12035A   26158.60951166  .00000000  00000+0  00000+0 0  9997
2 38551   0.0178 344.3202 0001807  92.1715 291.8458  1.00269025 50961
METEOSAT-10 (MSG-3)     
1 38552U 12035B   26158.34558516  .00000009  00000+0  00000+0 0  9990
2 38552   4.6475  61.0621 0001677 336.2701 343.0302  1.00275762 50752
SES-5                   
1 38652U 12036A   26158.27526051  .00000048  00000+0  00000+0 0  9996
2 38652   0.0512 308.1088 0002155 128.3799 283.2716  1.00273741 44354
INTELSAT 20 (IS-20)     
1 38740U 12043A   26158.71561252 -.00000010  00000+0  00000+0 0  9993
2 38740   0.0097  87.3258 0001779  87.5620  47.3462  1.00272191 50650
